[
    {
        "Altitude(m)": 563819.7558641258,
        "Argument of Periapsis(deg)": 0.033114955553567506,
        "Eccentricity": 0.0,
        "Inclination(deg)": 53.0,
        "Latitude(deg)": -33.3597629270113,
        "Longitude(deg)": -94.42319401204234,
        "Mean Anomaly(deg)": -136.814635662112,
        "RAAN(deg)": 159.95071684264008,
        "Satellite Name": "Starlink Shell 1 714",
        "Satellite Number": 714,
        "Semi-Major Axis(m)": 6931778.249405717,
        "Time(s)": 950
    },
    {
        "Altitude(m)": 563994.0513976987,
        "Argument of Periapsis(deg)": 0.03346353403307874,
        "Eccentricity": 0.0,
        "Inclination(deg)": 53.0,
        "Latitude(deg)": -33.794686218534935,
        "Longitude(deg)": -93.92415518657094,
        "Mean Anomaly(deg)": -136.18780445855535,
        "RAAN(deg)": 159.9501980725626,
        "Satellite Name": "Starlink Shell 1 714",
        "Satellite Number": 714,
        "Semi-Major Axis(m)": 6931778.249405717,
        "Time(s)": 960
    },
    {
        "Altitude(m)": 564167.9436334337,
        "Argument of Periapsis(deg)": 0.03381211251258998,
        "Eccentricity": 0.0,
        "Inclination(deg)": 53.0,
        "Latitude(deg)": -34.22717681522937,
        "Longitude(deg)": -93.41965936531079,
        "Mean Anomaly(deg)": -135.56097325499863,
        "RAAN(deg)": 159.94967930248515,
        "Satellite Name": "Starlink Shell 1 714",
        "Satellite Number": 714,
        "Semi-Major Axis(m)": 6931778.249405717,
        "Time(s)": 970
    },
    {
        "Altitude(m)": 564341.3662149381,
        "Argument of Periapsis(deg)": 0.034160690992101214,
        "Eccentricity": 0.0,
        "Inclination(deg)": 53.0,
        "Latitude(deg)": -34.65717147466386,
        "Longitude(deg)": -92.90959211194071,
        "Mean Anomaly(deg)": -134.93414205144194,
        "RAAN(deg)": 159.94916053240766,
        "Satellite Name": "Starlink Shell 1 714",
        "Satellite Number": 714,
        "Semi-Major Axis(m)": 6931778.249405717,
        "Time(s)": 980
    },
    {
        "Altitude(m)": 564514.2528496159,
        "Argument of Periapsis(deg)": 0.034509269471612446,
        "Eccentricity": 0.0,
        "Inclination(deg)": 53.0,
        "Latitude(deg)": -35.08460549800356,
        "Longitude(deg)": -92.39383759174959,
        "Mean Anomaly(deg)": -134.3073108478852,
        "RAAN(deg)": 159.9486417623302,
        "Satellite Name": "Starlink Shell 1 714",
        "Satellite Number": 714,
        "Semi-Major Axis(m)": 6931778.249405717,
        "Time(s)": 990
    }
]